[{"OBJECT_NAME":"KUIPER-00175","OBJECT_ID":"2025-301C","EPOCH":"2026-03-05T08:16:23.856384","MEAN_MOTION":15.30791713,"ECCENTRICITY":0.0002132,"INCLINATION":51.8759,"RA_OF_ASC_NODE":85.8896,"ARG_OF_PERICENTER":34.94,"MEAN_ANOMALY":325.1724,"EPHEMERIS_TYPE":0,"CLASSIFICATION_TYPE":"U","NORAD_CAT_ID":67135,"ELEMENT_SET_NO":999,"REV_AT_EPOCH":1314,"BSTAR":0.00068341,"MEAN_MOTION_DOT":0.00020328,"MEAN_MOTION_DDOT":0},{"OBJECT_NAME":"KUIPER-00179","OBJECT_ID":"2025-301D","EPOCH":"2026-03-05T18:00:00.998784","MEAN_MOTION":15.14363536,"ECCENTRICITY":0.000229,"INCLINATION":51.8819,"RA_OF_ASC_NODE":85.0928,"ARG_OF_PERICENTER":76.0195,"MEAN_ANOMALY":164.2489,"EPHEMERIS_TYPE":0,"CLASSIFICATION_TYPE":"U","NORAD_CAT_ID":67136,"ELEMENT_SET_NO":999,"REV_AT_EPOCH":573,"BSTAR":-0.11381,"MEAN_MOTION_DOT":-0.01914135,"MEAN_MOTION_DDOT":0},{"OBJECT_NAME":"KUIPER-00181","OBJECT_ID":"2025-301E","EPOCH":"2026-03-05T18:00:00.998784","MEAN_MOTION":14.76418278,"ECCENTRICITY":0.0001927,"INCLINATION":51.9007,"RA_OF_ASC_NODE":94.4241,"ARG_OF_PERICENTER":85.7671,"MEAN_ANOMALY":54.1875,"EPHEMERIS_TYPE":0,"CLASSIFICATION_TYPE":"U","NORAD_CAT_ID":67137,"ELEMENT_SET_NO":999,"REV_AT_EPOCH":539,"BSTAR":-0.0045721,"MEAN_MOTION_DOT":-0.0003214,"MEAN_MOTION_DDOT":0},{"OBJECT_NAME":"KUIPER-00183","OBJECT_ID":"2025-301F","EPOCH":"2026-03-05T18:00:00.998784","MEAN_MOTION":15.31640567,"ECCENTRICITY":0.0014915,"INCLINATION":51.8657,"RA_OF_ASC_NODE":84.9448,"ARG_OF_PERICENTER":38.6068,"MEAN_ANOMALY":210.4242,"EPHEMERIS_TYPE":0,"CLASSIFICATION_TYPE":"U","NORAD_CAT_ID":67138,"ELEMENT_SET_NO":999,"REV_AT_EPOCH":557,"BSTAR":-0.038788,"MEAN_MOTION_DOT":-0.0110597,"MEAN_MOTION_DDOT":0},{"OBJECT_NAME":"KUIPER-00184","OBJECT_ID":"2025-301G","EPOCH":"2026-03-05T05:18:23.731200","MEAN_MOTION":15.37154182,"ECCENTRICITY":0.0012398,"INCLINATION":51.8617,"RA_OF_ASC_NODE":87.2132,"ARG_OF_PERICENTER":34.4952,"MEAN_ANOMALY":325.6837,"EPHEMERIS_TYPE":0,"CLASSIFICATION_TYPE":"U","NORAD_CAT_ID":67139,"ELEMENT_SET_NO":999,"REV_AT_EPOCH":1332,"BSTAR":0.0011905,"MEAN_MOTION_DOT":0.00043949,"MEAN_MOTION_DDOT":0},{"OBJECT_NAME":"KUIPER-00186","OBJECT_ID":"2025-301H","EPOCH":"2026-03-05T12:37:45.784704","MEAN_MOTION":14.79977827,"ECCENTRICITY":6.25e-5,"INCLINATION":51.9022,"RA_OF_ASC_NODE":96.522,"ARG_OF_PERICENTER":107.3495,"MEAN_ANOMALY":252.7535,"EPHEMERIS_TYPE":0,"CLASSIFICATION_TYPE":"U","NORAD_CAT_ID":67140,"ELEMENT_SET_NO":999,"REV_AT_EPOCH":1294,"BSTAR":0.0019056,"MEAN_MOTION_DOT":0.00014352,"MEAN_MOTION_DDOT":0},{"OBJECT_NAME":"KUIPER-00187","OBJECT_ID":"2025-301J","EPOCH":"2026-03-05T06:04:46.108416","MEAN_MOTION":14.79948764,"ECCENTRICITY":6.74e-5,"INCLINATION":51.9018,"RA_OF_ASC_NODE":100.2399,"ARG_OF_PERICENTER":95.6772,"MEAN_ANOMALY":264.4268,"EPHEMERIS_TYPE":0,"CLASSIFICATION_TYPE":"U","NORAD_CAT_ID":67141,"ELEMENT_SET_NO":999,"REV_AT_EPOCH":1286,"BSTAR":-0.00075641,"MEAN_MOTION_DOT":-5.985e-5,"MEAN_MOTION_DDOT":0},{"OBJECT_NAME":"KUIPER-00188","OBJECT_ID":"2025-301K","EPOCH":"2026-03-05T07:45:51.542208","MEAN_MOTION":15.37876142,"ECCENTRICITY":0.0010313,"INCLINATION":51.8688,"RA_OF_ASC_NODE":86.4563,"ARG_OF_PERICENTER":30.0208,"MEAN_ANOMALY":330.1368,"EPHEMERIS_TYPE":0,"CLASSIFICATION_TYPE":"U","NORAD_CAT_ID":67142,"ELEMENT_SET_NO":999,"REV_AT_EPOCH":1306,"BSTAR":0.0013133,"MEAN_MOTION_DOT":0.00049679,"MEAN_MOTION_DDOT":0},{"OBJECT_NAME":"KUIPER-00191","OBJECT_ID":"2025-301L","EPOCH":"2026-03-05T18:00:00.998784","MEAN_MOTION":14.83437104,"ECCENTRICITY":0.0006834,"INCLINATION":51.8997,"RA_OF_ASC_NODE":90.6415,"ARG_OF_PERICENTER":50.1931,"MEAN_ANOMALY":173.2998,"EPHEMERIS_TYPE":0,"CLASSIFICATION_TYPE":"U","NORAD_CAT_ID":67143,"ELEMENT_SET_NO":999,"REV_AT_EPOCH":496,"BSTAR":-0.0061034,"MEAN_MOTION_DOT":-0.00050486,"MEAN_MOTION_DDOT":0},{"OBJECT_NAME":"KUIPER-00196","OBJECT_ID":"2025-301M","EPOCH":"2026-03-05T08:15:55.816128","MEAN_MOTION":15.38615916,"ECCENTRICITY":0.0003784,"INCLINATION":51.87,"RA_OF_ASC_NODE":85.8732,"ARG_OF_PERICENTER":9.9788,"MEAN_ANOMALY":350.1274,"EPHEMERIS_TYPE":0,"CLASSIFICATION_TYPE":"U","NORAD_CAT_ID":67144,"ELEMENT_SET_NO":999,"REV_AT_EPOCH":1307,"BSTAR":0.0012661,"MEAN_MOTION_DOT":0.0004898,"MEAN_MOTION_DDOT":0},{"OBJECT_NAME":"KUIPER-00204","OBJECT_ID":"2025-301N","EPOCH":"2026-03-05T12:48:37.072224","MEAN_MOTION":15.25954009,"ECCENTRICITY":0.0003051,"INCLINATION":51.8847,"RA_OF_ASC_NODE":90.0007,"ARG_OF_PERICENTER":332.451,"MEAN_ANOMALY":27.631,"EPHEMERIS_TYPE":0,"CLASSIFICATION_TYPE":"U","NORAD_CAT_ID":67145,"ELEMENT_SET_NO":999,"REV_AT_EPOCH":1314,"BSTAR":0.0011787,"MEAN_MOTION_DOT":0.00030475,"MEAN_MOTION_DDOT":0},{"OBJECT_NAME":"KUIPER-00210","OBJECT_ID":"2025-301P","EPOCH":"2026-03-05T18:00:00.998784","MEAN_MOTION":14.84055218,"ECCENTRICITY":0.0010227,"INCLINATION":51.8986,"RA_OF_ASC_NODE":90.6419,"ARG_OF_PERICENTER":60.8697,"MEAN_ANOMALY":323.4542,"EPHEMERIS_TYPE":0,"CLASSIFICATION_TYPE":"U","NORAD_CAT_ID":67146,"ELEMENT_SET_NO":999,"REV_AT_EPOCH":563,"BSTAR":-0.0045114,"MEAN_MOTION_DOT":-0.0003803,"MEAN_MOTION_DDOT":0},{"OBJECT_NAME":"KUIPER-00221","OBJECT_ID":"2025-301Q","EPOCH":"2026-03-05T02:01:39.805536","MEAN_MOTION":14.7998519,"ECCENTRICITY":6.121e-5,"INCLINATION":51.9008,"RA_OF_ASC_NODE":100.9697,"ARG_OF_PERICENTER":107.2753,"MEAN_ANOMALY":252.8276,"EPHEMERIS_TYPE":0,"CLASSIFICATION_TYPE":"U","NORAD_CAT_ID":67147,"ELEMENT_SET_NO":999,"REV_AT_EPOCH":1284,"BSTAR":0.00067593303,"MEAN_MOTION_DOT":4.942e-5,"MEAN_MOTION_DDOT":0},{"OBJECT_NAME":"KUIPER-00232","OBJECT_ID":"2025-301R","EPOCH":"2026-03-05T18:00:00.998784","MEAN_MOTION":15.15499752,"ECCENTRICITY":0.000351,"INCLINATION":51.8816,"RA_OF_ASC_NODE":84.9257,"ARG_OF_PERICENTER":140.5733,"MEAN_ANOMALY":119.3241,"EPHEMERIS_TYPE":0,"CLASSIFICATION_TYPE":"U","NORAD_CAT_ID":67148,"ELEMENT_SET_NO":999,"REV_AT_EPOCH":535,"BSTAR":-0.10772,"MEAN_MOTION_DOT":-0.01875643,"MEAN_MOTION_DDOT":0},{"OBJECT_NAME":"KUIPER-00241","OBJECT_ID":"2025-301S","EPOCH":"2026-03-05T18:00:00.998784","MEAN_MOTION":14.80031482,"ECCENTRICITY":0.0001037,"INCLINATION":51.9011,"RA_OF_ASC_NODE":93.032,"ARG_OF_PERICENTER":107.8638,"MEAN_ANOMALY":171.8156,"EPHEMERIS_TYPE":0,"CLASSIFICATION_TYPE":"U","NORAD_CAT_ID":67149,"ELEMENT_SET_NO":999,"REV_AT_EPOCH":575,"BSTAR":-0.0069703,"MEAN_MOTION_DOT":-0.00053065,"MEAN_MOTION_DDOT":0},{"OBJECT_NAME":"KUIPER-00245","OBJECT_ID":"2025-301T","EPOCH":"2026-03-05T01:57:46.878048","MEAN_MOTION":14.79932036,"ECCENTRICITY":5.258e-5,"INCLINATION":51.9025,"RA_OF_ASC_NODE":103.5032,"ARG_OF_PERICENTER":66.5774,"MEAN_ANOMALY":293.5243,"EPHEMERIS_TYPE":0,"CLASSIFICATION_TYPE":"U","NORAD_CAT_ID":67150,"ELEMENT_SET_NO":999,"REV_AT_EPOCH":1280,"BSTAR":-0.00020996179,"MEAN_MOTION_DOT":-1.821e-5,"MEAN_MOTION_DDOT":0},{"OBJECT_NAME":"KUIPER-00246","OBJECT_ID":"2025-301U","EPOCH":"2026-03-05T18:00:00.998784","MEAN_MOTION":15.06772761,"ECCENTRICITY":0.0004928,"INCLINATION":51.9019,"RA_OF_ASC_NODE":86.3742,"ARG_OF_PERICENTER":54.4772,"MEAN_ANOMALY":278.3921,"EPHEMERIS_TYPE":0,"CLASSIFICATION_TYPE":"U","NORAD_CAT_ID":67151,"ELEMENT_SET_NO":999,"REV_AT_EPOCH":593,"BSTAR":-0.080767,"MEAN_MOTION_DOT":-0.0112172,"MEAN_MOTION_DDOT":0}]
